TELSTAR 14R             
1 37602U 11021A   21099.49662064 -.00000296  00000-0  00000-0 0  9999
2 37602   0.0514  51.1250 0002735 351.1230 271.4784  1.00272511 36827
GSAT-8                  
1 37605U 11022A   21099.52026154  .00000068  00000-0  00000-0 0  9997
2 37605   0.0565  92.3419 0005197 207.8772 140.1313  1.00270983 34215
ST-2                    
1 37606U 11022B   21099.53024557 -.00000228  00000-0  00000-0 0  9993
2 37606   0.0171 222.4488 0001034 213.3460  41.0570  1.00274204 36286
CHINASAT 10 (ZX 10)     
1 37677U 11026A   21099.51299503 -.00000368  00000-0  00000-0 0  9993
2 37677   0.0477 250.4070 0002792 286.0923 316.5951  1.00268008 35999
TIANLIAN 1-02           
1 37737U 11032A   21099.62484757 -.00000030  00000-0  00000-0 0  9992
2 37737   2.1606  73.8687 0012200  96.8315  63.2849  1.00274053 35721
GSAT-12                 
1 37746U 11034A   21099.51877854  .00000109  00000-0  00000-0 0  9992
2 37746   0.3010  97.3810 0010402 340.6688 354.5553  1.00273812 24496
SES-3                   
1 37748U 11035A   21099.60133213 -.00000117  00000-0  00000-0 0  9999
2 37748   0.0593  72.4974 0002636 306.2340 292.7916  1.00272112 35624
KAZSAT-2                
1 37749U 11035B   21099.57846226 -.00000214  00000-0  00000-0 0  9999
2 37749   0.0367 298.3000 0001269 154.9904  39.5009  1.00271566 34393
BEIDOU 9                
1 37763U 11038A   21099.17154375 -.00000108  00000-0  00000-0 0  9993
2 37763  54.4607 182.6718 0080671 225.0807 307.2449  1.00279578 35649
ASTRA 1N                
1 37775U 11041A   21099.23313102  .00000102  00000-0  00000-0 0  9995
2 37775   0.0771  60.7663 0005545 327.4327 272.6069  1.00267479 25523
BSAT-3C (JCSAT-110R)    
1 37776U 11041B   21099.51299503 -.00000367  00000-0  00000-0 0  9999
2 37776   0.0461  89.1895 0000497  32.7784  10.6212  1.00270867 31483
PAKSAT-1R               
1 37779U 11042A   21099.22201969  .00000136  00000-0  00000-0 0  9993
2 37779   0.0170  92.5248 0009094 295.0215 288.0986  1.00273816 35477
CHINASAT 1A (ZX 1A)     
1 37804U 11047A   21099.51299503 -.00000354  00000-0  00000-0 0  9993
2 37804   0.0067 276.5050 0001437 104.3489 131.6464  1.00272961  8366
SES-2                   
1 37809U 11049A   21099.50513720 -.00000212  00000-0  00000-0 0  9992
2 37809   0.0537  80.0160 0002730 302.3862 270.3905  1.00272759 34966
ARABSAT-5C              
1 37810U 11049B   21099.51310821  .00000107  00000-0  00000-0 0  9994
2 37810   0.0613   9.5530 0001657  67.7660 325.3575  1.00269929 35055
EUTELSAT 7 WEST A       
1 37816U 11051A   21099.34926076 -.00000077  00000-0  00000-0 0  9996
2 37816   0.0927  53.2084 0002075  87.4860 175.5326  1.00272163 34899
QUETZSAT 1              
1 37826U 11054A   21099.49383174 -.00000257  00000-0  00000-0 0  9992
2 37826   0.0542  72.6142 0002530 314.0302 272.0682  1.00271273 30894
INTELSAT 18 (IS-18)     
1 37834U 11056A   21099.59777030  .00000036  00000-0  00000-0 0  9996
2 37834   0.0313 334.5749 0001917  57.9101 200.7508  1.00270740 34819
EUTELSAT 16A            
1 37836U 11057A   21099.23313102  .00000086  00000-0  00000-0 0  9991
2 37836   0.0703 358.6144 0004898  25.6526 273.3635  1.00269641 26977
VIASAT-1                
1 37843U 11059A   21099.59403576 -.00000039  00000-0  00000-0 0  9994
2 37843   0.0195 196.3640 0002509 184.4106 276.0152  1.00272823 28324
ASIASAT 7               
1 37933U 11069A   21099.59441198 -.00000350  00000-0  00000-0 0  9993
2 37933   0.0134 179.6867 0001553 196.9894 140.8422  1.00272255 34461
BEIDOU 10               
1 37948U 11073A   21099.26024985 -.00000140  00000-0  00000+0 0  9995
2 37948  51.0791 294.4307 0069547 214.0969 238.6516  1.00268373 34409
LUCH 5A                 
1 37951U 11074B   21099.62222597 -.00000058  00000-0  00000-0 0  9998
2 37951   3.9533 106.9278 0005074 301.4861 180.7542  1.00268185 34197
NIGCOMSAT 1R            
1 38014U 11077A   21099.51773170  .00000128  00000-0  00000-0 0  9995
2 38014   0.0488  49.9384 0000923  28.9569 347.9443  1.00270390 33954
FENGYUN 2F              
1 38049U 12002A   21099.53160220 -.00000370  00000-0  00000-0 0  9990
2 38049   2.7501  82.3643 0003984  42.9778  16.0162  1.00267952 33899
WGS F4 (USA 233)        
1 38070U 12003A   21099.22480978 -.00000232  00000-0  00000-0 0  9993
2 38070   0.0140 210.8897 0000405 257.6580 258.4454  1.00271863 25144
SES-4                   
1 38087U 12007A   21099.36124278 -.00000185  00000-0  00000-0 0  9995
2 38087   0.0203 279.5717 0002318 116.0529 270.2401  1.00271379 33247
BEIDOU 11               
1 38091U 12008A   21099.59360912  .00000043  00000-0  00000-0 0  9995
2 38091   1.4073  65.6568 0009040 314.4570  90.3020  1.00270099 33481
MUOS-1                  
1 38093U 12009A   21099.56617684 -.00000141  00000-0  00000-0 0  9996
2 38093   2.5899  18.3223 0059076   0.3274 283.1911  1.00273153 33441
INTELSAT 22 (IS-22)     
1 38098U 12011A   21099.52357650 -.00000075  00000-0  00000-0 0  9990
2 38098   0.0137 239.2672 0002749 142.9377  76.3516  1.00272536 32815
APSTAR 7                
1 38107U 12013A   21099.64346730 -.00000117  00000-0  00000+0 0  9999
2 38107   0.0234 209.2330 0002781 189.7159 107.2935  1.00269960 33171
YAHSAT 1B               
1 38245U 12016A   21099.51869130  .00000110  00000-0  00000-0 0  9998
2 38245   0.0114 190.0171 0001769 213.2901  28.9895  1.00273297 26594
AEHF-2 (USA 235)        
1 38254U 12019A   21099.44855203 -.00000289  00000-0  00000-0 0  9997
2 38254   2.4979  55.0555 0005940   8.4397 228.3500  1.00269716 31858
JCSAT-13                
1 38331U 12023A   21099.52966156 -.00000373  00000-0  00000-0 0  9991
2 38331   0.0128 208.4178 0002252 189.1418 115.0825  1.00273381 32534
VINASAT-2               
1 38332U 12023B   21099.53552781 -.00000345  00000-0  00000-0 0  9997
2 38332   0.0130 184.6048 0002521 211.8178 126.2042  1.00272062 27662
NIMIQ 6                 
1 38342U 12026A   21099.50268976 -.00000190  00000-0  00000-0 0  9996
2 38342   0.0542  84.8039 0002328 297.9516 265.0549  1.00272089 31429
CHINASAT 2A (ZX 2A)     
1 38352U 12028A   21099.45656878 -.00000310  00000-0  00000-0 0  9999
2 38352   0.0293  35.8106 0002519  18.7327  45.9602  1.00274695 32381
INTELSAT 19 (IS-19)     
1 38356U 12030A   21099.58691723 -.00000072  00000-0  00000-0 0  9993
2 38356   0.0024 187.7271 0002822 199.8121 187.7785  1.00272887 31441
ECHOSTAR 17             
1 38551U 12035A   21099.59857549 -.00000091  00000-0  00000-0 0  9997
2 38551   0.0216 206.3737 0002001 167.9810 292.0870  1.00269623 32064
METEOSAT-10 (MSG-3)     
1 38552U 12035B   21099.22393352  .00000044  00000-0  00000-0 0  9992
2 38552   1.2118   4.1602 0001020  43.4432 239.9215  1.00275802 31857
SES-5                   
1 38652U 12036A   21099.23868796  .00000016  00000-0  00000-0 0  9993
2 38652   0.0263 303.4433 0001832  78.1591 266.9860  1.00271653 25494
TIANLIAN 1-03           
1 38730U 12040A   21099.23313102  .00000109  00000-0  00000-0 0  9994
2 38730   0.9367  97.3867 0007241 300.6493 263.9005  1.00272800 31983
INTELSAT 20 (IS-20)     
1 38740U 12043A   21099.52287862 -.00000041  00000-0  00000-0 0  9999
2 38740   0.0135 171.4742 0000955  12.8791 270.3511  1.00273005 31748
HYLAS 2                 
1 38741U 12043B   21099.51528910  .00000138  00000-0  00000-0 0  9997
2 38741   0.0399  89.3866 0001903 301.2312  23.8666  1.00269345 31769
INTELSAT 21 (IS-21)     
1 38749U 12045A   21099.49766747 -.00000301  00000-0  00000-0 0  9999
2 38749   0.0108 154.6661 0002205 242.3989 282.0416  1.00273081 31534
ASTRA 2F                
1 38778U 12051A   21099.51485293  .00000133  00000-0  00000-0 0  9997
2 38778   0.0676 238.4924 0001162  43.9516 129.0695  1.00269332 22118
GSAT-10                 
1 38779U 12051B   21099.60264670 -.00000181  00000-0  00000-0 0  9996
2 38779   0.0153 161.7619 0000088 129.8534 206.3955  1.00271819 31120
INTELSAT 23 (IS-23)     
1 38867U 12057A   21099.45742583 -.00000301  00000-0  00000-0 0  9991
2 38867   0.0198 145.0275 0001710 234.8185 289.7494  1.00273418 30952
BEIDOU 16               
1 38953U 12059A   21099.60002044 -.00000190  00000-0  00000-0 0  9993
2 38953   1.8054  84.7914 0009386 283.0525 130.2298  1.00272496 31057
LUCH 5B                 
1 38977U 12061A   21099.11298234 -.00000146  00000-0  00000-0 0  9997
2 38977   6.3665  65.6826 0003069 326.8741 189.3551  1.00270762 31173
YAMAL 300K              
1 38978U 12061B   21099.59975480  .00000055  00000-0  00000-0 0  9993
2 38978   0.0139 218.9750 0000861 335.7287  42.1933  1.00273206 30648
STAR ONE C3             
1 38991U 12062A   21099.49426792 -.00000265  00000-0  00000-0 0  9999
2 38991   0.1033  94.7886 0002362 336.8785 229.2033  1.00270402 30767
EUTELSAT 21B            
1 38992U 12062B   21099.51345715  .00000113  00000-0  00000-0 0  9999
2 38992   0.0706 359.9170 0002500  23.8036  20.7043  1.00269369 30835
ECHOSTAR 16             
1 39008U 12065A   21099.49696958 -.00000298  00000-0  00000-0 0  9991
2 39008   0.0222 202.6657 0001673 166.1232 306.5768  1.00268467 30624
CHINASAT 12 (ZX 12)     
1 39017U 12067A   21099.59987507 -.00000222  00000-0  00000-0 0  9994
2 39017   0.0234 216.7050 0002845 171.9783 112.8154  1.00269125 30514
EUTELSAT 70B            
1 39020U 12069A   21099.52331479 -.00000060  00000-0  00000-0 0  9994
2 39020   0.0717  48.6264 0001716 113.8203 294.3854  1.00272607 30513
YAMAL 402               
1 39022U 12070A   21099.52017431  .00000069  00000-0  00000-0 0  9995
2 39022   0.0184 130.2527 0002952 267.9966  41.8735  1.00272910 30388
SKYNET 5D               
1 39034U 12075A   21099.51973812  .00000082  00000-0  00000-0 0  9991
2 39034   0.0757 359.4353 0003195  18.1413  60.2765  1.00275647 30177
MEXSAT 3                
1 39035U 12075B   21099.59306550 -.00000041  00000-0  00000-0 0  9995
2 39035   0.0214 238.4565 0001923 139.3822 278.9133  1.00270809 30187
